ORBCOMM-X               
1 21576U 91050C   24193.14629464  .00000479  00000+0  15744-3 0  9994
2 21576  98.3885 259.9844 0004684 127.3884 232.7733 14.42583833732932
ORBCOMM FM01            
1 23545U 95017A   24193.72866766  .00007072  00000+0  92199-3 0  9996
2 23545  69.9657 197.6295 0003502 156.0998 204.0315 14.80938542562282
ORBCOMM FM02            
1 23546U 95017B   24193.50272830  .00006294  00000+0  82813-3 0  9993
2 23546  69.9668 217.7090 0004791 133.9755 226.1791 14.80612736561543
ORBCOMM FM08            
1 25112U 97084A   24193.50897066  .00001612  00000+0  52032-3 0  9993
2 25112  45.0132 199.9571 0009266 321.2756  38.7430 14.42898009392114
ORBCOMM FM10            
1 25113U 97084B   24193.45099268  .00001373  00000+0  45058-3 0  9990
2 25113  45.0146 202.1440 0007270 297.6302  62.3810 14.42797386567258
ORBCOMM FM11            
1 25114U 97084C   24193.75216239  .00001555  00000+0  50591-3 0  9993
2 25114  45.0131 200.8274 0008050 299.2330  60.7715 14.42665839392292
ORBCOMM FM12            
1 25115U 97084D   24193.50579304  .00001473  00000+0  48194-3 0  9997
2 25115  45.0139 201.7212 0007073 298.1018  61.9117 14.42625930392262
ORBCOMM FM09            
1 25116U 97084E   24193.72642674  .00001480  00000+0  48426-3 0  9999
2 25116  45.0141 201.3732 0008077 288.3755  71.6217 14.42591515392296
