<?xml version="1.0" encoding="UTF-8"?>
<ndm xmlns:xsi="http://www.w3.org/2001/XMLSchema-instance" xsi:noNamespaceSchemaLocation="https://sanaregistry.org/r/ndmxml_unqualified/ndmxml-2.0.0-master-2.0.xsd">
<omm id="CCSDS_OMM_VERS" version="2.0">
<header><CREATION_DATE/><ORIGINATOR/></header><body><segment><metadata><OBJECT_NAME>ORBCOMM-X</OBJECT_NAME><OBJECT_ID>1991-050C</OBJECT_ID><CENTER_NAME>EARTH</CENTER_NAME><REF_FRAME>TEME</REF_FRAME><TIME_SYSTEM>UTC</TIME_SYSTEM><MEAN_ELEMENT_THEORY>SGP4</MEAN_ELEMENT_THEORY></metadata><data><meanElements><EPOCH>2024-07-11T03:30:39.856896</EPOCH><MEAN_MOTION>14.42583833</MEAN_MOTION><ECCENTRICITY>.0004684</ECCENTRICITY><INCLINATION>98.3885</INCLINATION><RA_OF_ASC_NODE>259.9844</RA_OF_ASC_NODE><ARG_OF_PERICENTER>127.3884</ARG_OF_PERICENTER><MEAN_ANOMALY>232.7733</MEAN_ANOMALY></meanElements><tleParameters><EPHEMERIS_TYPE>0</EPHEMERIS_TYPE><CLASSIFICATION_TYPE>U</CLASSIFICATION_TYPE><NORAD_CAT_ID>21576</NORAD_CAT_ID><ELEMENT_SET_NO>999</ELEMENT_SET_NO><REV_AT_EPOCH>73293</REV_AT_EPOCH><BSTAR>.15744E-3</BSTAR><MEAN_MOTION_DOT>.479E-5</MEAN_MOTION_DOT><MEAN_MOTION_DDOT>0</MEAN_MOTION_DDOT></tleParameters></data></segment></body></omm>
<omm id="CCSDS_OMM_VERS" version="2.0">
<header><CREATION_DATE/><ORIGINATOR/></header><body><segment><metadata><OBJECT_NAME>ORBCOMM FM01</OBJECT_NAME><OBJECT_ID>1995-017A</OBJECT_ID><CENTER_NAME>EARTH</CENTER_NAME><REF_FRAME>TEME</REF_FRAME><TIME_SYSTEM>UTC</TIME_SYSTEM><MEAN_ELEMENT_THEORY>SGP4</MEAN_ELEMENT_THEORY></metadata><data><meanElements><EPOCH>2024-07-11T17:29:16.885824</EPOCH><MEAN_MOTION>14.80938542</MEAN_MOTION><ECCENTRICITY>.0003502</ECCENTRICITY><INCLINATION>69.9657</INCLINATION><RA_OF_ASC_NODE>197.6295</RA_OF_ASC_NODE><ARG_OF_PERICENTER>156.0998</ARG_OF_PERICENTER><MEAN_ANOMALY>204.0315</MEAN_ANOMALY></meanElements><tleParameters><EPHEMERIS_TYPE>0</EPHEMERIS_TYPE><CLASSIFICATION_TYPE>U</CLASSIFICATION_TYPE><NORAD_CAT_ID>23545</NORAD_CAT_ID><ELEMENT_SET_NO>999</ELEMENT_SET_NO><REV_AT_EPOCH>56228</REV_AT_EPOCH><BSTAR>.92199E-3</BSTAR><MEAN_MOTION_DOT>.7072E-4</MEAN_MOTION_DOT><MEAN_MOTION_DDOT>0</MEAN_MOTION_DDOT></tleParameters></data></segment></body></omm>
<omm id="CCSDS_OMM_VERS" version="2.0">
<header><CREATION_DATE/><ORIGINATOR/></header><body><segment><metadata><OBJECT_NAME>ORBCOMM FM02</OBJECT_NAME><OBJECT_ID>1995-017B</OBJECT_ID><CENTER_NAME>EARTH</CENTER_NAME><REF_FRAME>TEME</REF_FRAME><TIME_SYSTEM>UTC</TIME_SYSTEM><MEAN_ELEMENT_THEORY>SGP4</MEAN_ELEMENT_THEORY></metadata><data><meanElements><EPOCH>2024-07-11T12:03:55.725120</EPOCH><MEAN_MOTION>14.80612736</MEAN_MOTION><ECCENTRICITY>.0004791</ECCENTRICITY><INCLINATION>69.9668</INCLINATION><RA_OF_ASC_NODE>217.7090</RA_OF_ASC_NODE><ARG_OF_PERICENTER>133.9755</ARG_OF_PERICENTER><MEAN_ANOMALY>226.1791</MEAN_ANOMALY></meanElements><tleParameters><EPHEMERIS_TYPE>0</EPHEMERIS_TYPE><CLASSIFICATION_TYPE>U</CLASSIFICATION_TYPE><NORAD_CAT_ID>23546</NORAD_CAT_ID><ELEMENT_SET_NO>999</ELEMENT_SET_NO><REV_AT_EPOCH>56154</REV_AT_EPOCH><BSTAR>.82813E-3</BSTAR><MEAN_MOTION_DOT>.6294E-4</MEAN_MOTION_DOT><MEAN_MOTION_DDOT>0</MEAN_MOTION_DDOT></tleParameters></data></segment></body></omm>
<omm id="CCSDS_OMM_VERS" version="2.0">
<header><CREATION_DATE/><ORIGINATOR/></header><body><segment><metadata><OBJECT_NAME>ORBCOMM FM08</OBJECT_NAME><OBJECT_ID>1997-084A</OBJECT_ID><CENTER_NAME>EARTH</CENTER_NAME><REF_FRAME>TEME</REF_FRAME><TIME_SYSTEM>UTC</TIME_SYSTEM><MEAN_ELEMENT_THEORY>SGP4</MEAN_ELEMENT_THEORY></metadata><data><meanElements><EPOCH>2024-07-11T12:12:55.065024</EPOCH><MEAN_MOTION>14.42898009</MEAN_MOTION><ECCENTRICITY>.0009266</ECCENTRICITY><INCLINATION>45.0132</INCLINATION><RA_OF_ASC_NODE>199.9571</RA_OF_ASC_NODE><ARG_OF_PERICENTER>321.2756</ARG_OF_PERICENTER><MEAN_ANOMALY>38.7430</MEAN_ANOMALY></meanElements><tleParameters><EPHEMERIS_TYPE>0</EPHEMERIS_TYPE><CLASSIFICATION_TYPE>U</CLASSIFICATION_TYPE><NORAD_CAT_ID>25112</NORAD_CAT_ID><ELEMENT_SET_NO>999</ELEMENT_SET_NO><REV_AT_EPOCH>39211</REV_AT_EPOCH><BSTAR>.52032E-3</BSTAR><MEAN_MOTION_DOT>.1612E-4</MEAN_MOTION_DOT><MEAN_MOTION_DDOT>0</MEAN_MOTION_DDOT></tleParameters></data></segment></body></omm>
<omm id="CCSDS_OMM_VERS" version="2.0">
<header><CREATION_DATE/><ORIGINATOR/></header><body><segment><metadata><OBJECT_NAME>ORBCOMM FM10</OBJECT_NAME><OBJECT_ID>1997-084B</OBJECT_ID><CENTER_NAME>EARTH</CENTER_NAME><REF_FRAME>TEME</REF_FRAME><TIME_SYSTEM>UTC</TIME_SYSTEM><MEAN_ELEMENT_THEORY>SGP4</MEAN_ELEMENT_THEORY></metadata><data><meanElements><EPOCH>2024-07-11T10:49:25.767552</EPOCH><MEAN_MOTION>14.42797386</MEAN_MOTION><ECCENTRICITY>.000727</ECCENTRICITY><INCLINATION>45.0146</INCLINATION><RA_OF_ASC_NODE>202.1440</RA_OF_ASC_NODE><ARG_OF_PERICENTER>297.6302</ARG_OF_PERICENTER><MEAN_ANOMALY>62.3810</MEAN_ANOMALY></meanElements><tleParameters><EPHEMERIS_TYPE>0</EPHEMERIS_TYPE><CLASSIFICATION_TYPE>U</CLASSIFICATION_TYPE><NORAD_CAT_ID>25113</NORAD_CAT_ID><ELEMENT_SET_NO>999</ELEMENT_SET_NO><REV_AT_EPOCH>56725</REV_AT_EPOCH><BSTAR>.45058E-3</BSTAR><MEAN_MOTION_DOT>.1373E-4</MEAN_MOTION_DOT><MEAN_MOTION_DDOT>0</MEAN_MOTION_DDOT></tleParameters></data></segment></body></omm>
<omm id="CCSDS_OMM_VERS" version="2.0">
<header><CREATION_DATE/><ORIGINATOR/></header><body><segment><metadata><OBJECT_NAME>ORBCOMM FM11</OBJECT_NAME><OBJECT_ID>1997-084C</OBJECT_ID><CENTER_NAME>EARTH</CENTER_NAME><REF_FRAME>TEME</REF_FRAME><TIME_SYSTEM>UTC</TIME_SYSTEM><MEAN_ELEMENT_THEORY>SGP4</MEAN_ELEMENT_THEORY></metadata><data><meanElements><EPOCH>2024-07-11T18:03:06.830496</EPOCH><MEAN_MOTION>14.42665839</MEAN_MOTION><ECCENTRICITY>.000805</ECCENTRICITY><INCLINATION>45.0131</INCLINATION><RA_OF_ASC_NODE>200.8274</RA_OF_ASC_NODE><ARG_OF_PERICENTER>299.2330</ARG_OF_PERICENTER><MEAN_ANOMALY>60.7715</MEAN_ANOMALY></meanElements><tleParameters><EPHEMERIS_TYPE>0</EPHEMERIS_TYPE><CLASSIFICATION_TYPE>U</CLASSIFICATION_TYPE><NORAD_CAT_ID>25114</NORAD_CAT_ID><ELEMENT_SET_NO>999</ELEMENT_SET_NO><REV_AT_EPOCH>39229</REV_AT_EPOCH><BSTAR>.50591E-3</BSTAR><MEAN_MOTION_DOT>.1555E-4</MEAN_MOTION_DOT><MEAN_MOTION_DDOT>0</MEAN_MOTION_DDOT></tleParameters></data></segment></body></omm>
<omm id="CCSDS_OMM_VERS" version="2.0">
<header><CREATION_DATE/><ORIGINATOR/></header><body><segment><metadata><OBJECT_NAME>ORBCOMM FM12</OBJECT_NAME><OBJECT_ID>1997-084D</OBJECT_ID><CENTER_NAME>EARTH</CENTER_NAME><REF_FRAME>TEME</REF_FRAME><TIME_SYSTEM>UTC</TIME_SYSTEM><MEAN_ELEMENT_THEORY>SGP4</MEAN_ELEMENT_THEORY></metadata><data><meanElements><EPOCH>2024-07-11T12:08:20.518656</EPOCH><MEAN_MOTION>14.42625930</MEAN_MOTION><ECCENTRICITY>.0007073</ECCENTRICITY><INCLINATION>45.0139</INCLINATION><RA_OF_ASC_NODE>201.7212</RA_OF_ASC_NODE><ARG_OF_PERICENTER>298.1018</ARG_OF_PERICENTER><MEAN_ANOMALY>61.9117</MEAN_ANOMALY></meanElements><tleParameters><EPHEMERIS_TYPE>0</EPHEMERIS_TYPE><CLASSIFICATION_TYPE>U</CLASSIFICATION_TYPE><NORAD_CAT_ID>25115</NORAD_CAT_ID><ELEMENT_SET_NO>999</ELEMENT_SET_NO><REV_AT_EPOCH>39226</REV_AT_EPOCH><BSTAR>.48194E-3</BSTAR><MEAN_MOTION_DOT>.1473E-4</MEAN_MOTION_DOT><MEAN_MOTION_DDOT>0</MEAN_MOTION_DDOT></tleParameters></data></segment></body></omm>
<omm id="CCSDS_OMM_VERS" version="2.0">
<header><CREATION_DATE/><ORIGINATOR/></header><body><segment><metadata><OBJECT_NAME>ORBCOMM FM09</OBJECT_NAME><OBJECT_ID>1997-084E</OBJECT_ID><CENTER_NAME>EARTH</CENTER_NAME><REF_FRAME>TEME</REF_FRAME><TIME_SYSTEM>UTC</TIME_SYSTEM><MEAN_ELEMENT_THEORY>SGP4</MEAN_ELEMENT_THEORY></metadata><data><meanElements><EPOCH>2024-07-11T17:26:03.270336</EPOCH><MEAN_MOTION>14.42591515</MEAN_MOTION><ECCENTRICITY>.0008077</ECCENTRICITY><INCLINATION>45.0141</INCLINATION><RA_OF_ASC_NODE>201.3732</RA_OF_ASC_NODE><ARG_OF_PERICENTER>288.3755</ARG_OF_PERICENTER><MEAN_ANOMALY>71.6217</MEAN_ANOMALY></meanElements><tleParameters><EPHEMERIS_TYPE>0</EPHEMERIS_TYPE><CLASSIFICATION_TYPE>U</CLASSIFICATION_TYPE><NORAD_CAT_ID>25116</NORAD_CAT_ID><ELEMENT_SET_NO>999</ELEMENT_SET_NO><REV_AT_EPOCH>39229</REV_AT_EPOCH><BSTAR>.48426E-3</BSTAR><MEAN_MOTION_DOT>.148E-4</MEAN_MOTION_DOT><MEAN_MOTION_DDOT>0</MEAN_MOTION_DDOT></tleParameters></data></segment></body></omm>

</ndm>
